IRIDIUM 116             
1 43072U 17083C   23285.78128572  .00000016  00000+0 -13999-5 0  9998
2 43072  86.4028  10.9211 0002280  99.5817 260.5637 14.34217679303932
IRIDIUM 130             
1 43073U 17083D   23285.74957127  .00000165  00000+0  51690-4 0  9994
2 43073  86.4039  11.1144 0002098  93.5977 266.5458 14.34215165303879
IRIDIUM 151             
1 43074U 17083E   23285.79397140  .00000028  00000+0  30034-5 0  9991
2 43074  86.4032  10.9510 0002360  93.3453 266.8013 14.34214993303908
IRIDIUM 134             
1 43075U 17083F   23285.76225856  .00000258  00000+0  84926-4 0  9996
2 43075  86.4032  10.9590 0001965  95.6072 264.5348 14.34215540303869
IRIDIUM 137             
1 43076U 17083G   23285.49586726  .00000631  00000+0  21812-3 0  9992
2 43076  86.4034  11.1436 0002391 100.4219 259.7247 14.34219651303890
IRIDIUM 141             
1 43077U 17083H   23285.76860002  .00000620  00000+0  21433-3 0  9992
2 43077  86.4028  10.9157 0002249  90.2381 269.9073 14.34217189303938
IRIDIUM 153             
1 43078U 17083J   23285.51147032  .00000590  00000+0  20368-3 0  9999
2 43078  86.4002 339.4977 0002354  85.0015 275.1450 14.34217070305000
IRIDIUM 131             
1 43079U 17083K   23285.75591385  .00000029  00000+0  31282-5 0  9996
2 43079  86.4038  11.0414 0002106  91.9856 268.1581 14.34215341303861
